ATLAS CENTAUR R/B       
1 06155U 72065B   26069.23403056  .00001560  00000+0  21564-3 0  9995
2 06155  35.0017 302.5644 0033465  13.4168 346.7416 14.77688627841340
SL-8 R/B                
1 08459U 75112B   26069.26823631  .00000331  00000+0  11745-3 0  9993
2 08459  74.0630  17.8474 0014418 110.8997 249.3702 14.38204202631959
SL-3 R/B                
1 10114U 77057B   26069.23695816  .00016563  00000+0  34668-3 0  9996
2 10114  97.5778 241.1817 0006162 283.0084  77.0476 15.45512763668411
SEASAT 1                
1 10967U 78064A   26069.11866629  .00000314  00000+0  12632-3 0  9994
2 10967 108.0108 126.4000 0002328 285.7450  74.3439 14.46160702506576
SL-14 R/B               
1 11267U 79011B   26069.11704600  .00000697  00000+0  66182-4 0  9995
2 11267  82.5208  96.1654 0017387  59.2501 301.0428 14.91908671528844
SL-8 R/B                
1 11574U 79089B   26069.23102249  .00000345  00000+0  11220-3 0  9997
2 11574  74.0667  90.0415 0017158 262.6507  97.2699 14.42351253436183
SL-14 R/B               
1 11672U 80005B   26069.13034980  .00000659  00000+0  64127-4 0  9994
2 11672  82.5144 306.8184 0016218 156.8608 203.3345 14.90930937476557
SL-8 R/B                
1 12139U 81003B   26069.06698317  .00021828  00000+0  55974-3 0  9994
2 12139  82.9385 289.6746 0262078 177.3345 182.9362 15.10990524314735
SL-3 R/B                
1 12465U 81046B   26069.30359311  .00014518  00000+0  33729-3 0  9990
2 12465  81.2299 289.0069 0019501  20.2150 339.9861 15.42014699438523
SL-3 R/B                
1 12904U 81103B   26069.23268541  .00007038  00000+0  31215-3 0  9995
2 12904  81.1586 212.7948 0012416 285.0840  74.9017 15.21385055973317
SL-3 R/B                
1 13068U 82013B   26069.24052842  .00005753  00000+0  24895-3 0  9992
2 13068  81.1762 160.1251 0022657 175.6990 184.4442 15.22026031404434
SL-3 R/B                
1 13154U 82039B   26069.25316883  .00003595  00000+0  21717-3 0  9997
2 13154  81.1582 215.3120 0029722 322.6630  37.2529 15.10086203381724
